NORAD_CAT_ID,OBJECT_NAME,OBJECT_TYPE,EPOCH,MEAN_MOTION,ECCENTRICITY,INCLINATION,RA_OF_ASC_NODE,ARG_OF_PERICENTER,MEAN_ANOMALY,BSTAR,MEAN_MOTION_DOT,MEAN_MOTION_DDOT,TLE_LINE0,TLE_LINE1,TLE_LINE2,SEMIMAJOR_AXIS,PERIOD,APOGEE,PERIGEE,DECAYED
50157.0,STARLINK-3313,PAYLOAD,2023-03-08 09:01:38,15.0883927,0.0001013,53.2155,145.1545,108.7116,251.3986,0.0015261,0.00024083,0.0,0 STARLINK-3313,1 50157U 21125B   23067.37614001  .00024083  00000-0  15261-2 0  9993,2 50157  53.2155 145.1545 0001013 108.7116 251.3986 15.08839270 67713,6917.883,95.438,540.448,539.047,0.0
50157.0,STARLINK-3313,PAYLOAD,2023-03-08 21:44:43,15.08845366,0.0001335,53.216,142.7775,108.6181,251.4956,0.0012298,0.00019341,0.0,0 STARLINK-3313,1 50157U 21125B   23067.90606260  .00019341  00000-0  12298-2 0  9998,2 50157  53.2160 142.7775 0001335 108.6181 251.4956 15.08845366 70923,6917.864,95.437,540.653,538.805,0.0
50157.0,STARLINK-3313,PAYLOAD,2023-03-09 21:35:30,15.0886421,0.000131,53.2147,138.3161,81.777,278.337,0.0009863,0.00015454,0.0,0 STARLINK-3313,1 50157U 21125B   23068.89965306  .00015454  00000-0  98630-3 0  9992,2 50157  53.2147 138.3161 0001310  81.7770 278.3370 15.08864210 71070,6917.806,95.436,540.578,538.765,0.0
50157.0,STARLINK-3313,PAYLOAD,2023-03-10 10:18:35,15.08855642,0.0001632,53.2145,135.9362,84.5966,275.5212,0.00049887,7.664e-05,0.0,0 STARLINK-3313,1 50157U 21125B   23069.42957211  .00007664  00000-0  49887-3 0  9992,2 50157  53.2145 135.9362 0001632  84.5966 275.5212 15.08855642 68023,6917.833,95.437,540.827,538.569,0.0
50157.0,STARLINK-3313,PAYLOAD,2023-03-10 21:26:17,15.08833136,0.000117,53.2152,133.8544,103.7656,256.3466,0.00033905,5.111e-05,0.0,0 STARLINK-3313,1 50157U 21125B   23069.89325459  .00005111  00000-0  33905-3 0  9995,2 50157  53.2152 133.8544 0001170 103.7656 256.3466 15.08833136 71225,6917.901,95.438,540.576,538.957,0.0
50157.0,STARLINK-3313,PAYLOAD,2023-03-11 03:47:50,15.0881106,0.000135,53.2148,132.6643,111.7073,248.4063,0.00013387,1.842e-05,0.0,0 STARLINK-3313,1 50157U 21125B   23070.15822383  .00001842  00000-0  13387-3 0  9993,2 50157  53.2148 132.6643 0001350 111.7073 248.4063 15.08811060 68132,6917.969,95.439,540.768,538.9,0.0
50157.0,STARLINK-3313,PAYLOAD,2023-03-11 10:09:23,15.08815862,0.0001561,53.2138,131.4757,103.6848,256.4318,0.0011838,0.0001859,0.0,0 STARLINK-3313,1 50157U 21125B   23070.42318835  .00018590  00000-0  11838-2 0  9991,2 50157  53.2138 131.4757 0001561 103.6848 256.4318 15.08815862 71307,6917.954,95.439,540.899,538.739,0.0
50157.0,STARLINK-3313,PAYLOAD,2023-03-11 16:30:56,15.08825754,0.0001695,53.2138,130.2864,98.9941,261.1243,0.0015833,0.0002499,0.0,0 STARLINK-3313,1 50157U 21125B   23070.68815295  .00024990  00000-0  15833-2 0  9991,2 50157  53.2138 130.2864 0001695  98.9941 261.1243 15.08825754 68218,6917.924,95.438,540.962,538.616,0.0
50157.0,STARLINK-3313,PAYLOAD,2023-03-12 10:00:11,15.08838764,0.0001879,53.2146,127.0116,107.1246,252.9952,0.0009414,0.00014726,0.0,0 STARLINK-3313,1 50157U 21125B   23071.41679604  .00014726  00000-0  94140-3 0  9990,2 50157  53.2146 127.0116 0001879 107.1246 252.9952 15.08838764 68328,6917.884,95.438,541.049,538.449,0.0
50157.0,STARLINK-3313,PAYLOAD,2023-03-14 03:20:12,15.08832857,0.0001392,53.2155,119.2848,65.2323,294.8814,0.00041628,6.342e-05,0.0,0 STARLINK-3313,1 50157U 21125B   23073.13903346  .00006342  00000-0  41628-3 0  9992,2 50157  53.2155 119.2848 0001392  65.2323 294.8814 15.08832857 68580,6917.902,95.438,540.73,538.804,0.0
50157.0,STARLINK-3313,PAYLOAD,2023-03-14 09:41:44,15.08841961,0.0001432,53.2151,118.0949,72.4314,287.6834,0.00054669,8.424e-05,0.0,0 STARLINK-3313,1 50157U 21125B   23073.40399200  .00008424  00000-0  54669-3 0  9992,2 50157  53.2151 118.0949 0001432  72.4314 287.6834 15.08841961 71751,6917.874,95.437,540.73,538.749,0.0
50157.0,STARLINK-3313,PAYLOAD,2023-03-15 03:10:58,15.08858363,0.0001452,53.2153,114.8227,82.2864,277.8293,0.00065866,0.00010215,0.0,0 STARLINK-3313,1 50157U 21125B   23074.13262575  .00010215  00000-0  65866-3 0  9999,2 50157  53.2153 114.8227 0001452  82.2864 277.8293 15.08858363 68735,6917.824,95.436,540.694,538.685,0.0
50157.0,STARLINK-3313,PAYLOAD,2023-03-15 09:32:30,15.08873752,0.000148,53.2154,113.633,84.1459,275.9702,0.00096438,0.00015108,0.0,0 STARLINK-3313,1 50157U 21125B   23074.39757940  .00015108  00000-0  96438-3 0  9997,2 50157  53.2154 113.6330 0001480  84.1459 275.9702 15.08873752 71906,6917.777,95.435,540.666,538.618,0.0
50157.0,STARLINK-3313,PAYLOAD,2023-03-15 19:04:49,15.08834153,0.0001671,53.215,111.8473,87.7371,272.3813,-0.00085986,-0.00013945,0.0,0 STARLINK-3313,1 50157U 21125B   23074.79502071 -.00013945  00000-0 -85986-3 0  9999,2 50157  53.2150 111.8473 0001671  87.7371 272.3813 15.08834153 68838,6917.898,95.438,540.919,538.607,0.0
50157.0,STARLINK-3313,PAYLOAD,2023-03-16 12:34:04,15.08840599,0.0001083,53.2156,108.5756,106.3408,253.7703,0.00036574,5.538e-05,0.0,0 STARLINK-3313,1 50157U 21125B   23075.52365939  .00005538  00000-0  36574-3 0  9997,2 50157  53.2156 108.5756 0001083 106.3408 253.7703 15.08840599 68941,6917.879,95.438,540.493,538.994,0.0
50157.0,STARLINK-3313,PAYLOAD,2023-03-17 10:49:29,15.0882614,9.04e-05,53.2143,104.414,132.9992,227.1076,0.0009554,0.00014944,0.0,0 STARLINK-3313,1 50157U 21125B   23076.45103426  .00014944  00000-0  95540-3 0  9990,2 50157  53.2143 104.4140 0000904 132.9992 227.1076 15.08826140 69083,6917.923,95.438,540.413,539.162,0.0
50157.0,STARLINK-3313,PAYLOAD,2023-03-17 18:46:25,15.08838365,8.18e-05,53.2141,102.928,92.5006,267.6079,0.0010449,0.0001638,0.0,0 STARLINK-3313,1 50157U 21125B   23076.78223674  .00016380  00000-0  10449-2 0  9994,2 50157  53.2141 102.9280 0000818  92.5006 267.6079 15.08838365 72268,6917.885,95.438,540.316,539.185,0.0
50157.0,STARLINK-3313,PAYLOAD,2023-03-18 18:37:11,15.08846118,6.99e-05,53.215,98.4663,99.7206,260.3865,0.00021436,3.126e-05,0.0,0 STARLINK-3313,1 50157U 21125B   23077.77583086  .00003126  00000-0  21436-3 0  9993,2 50157  53.2150  98.4663 0000699  99.7206 260.3865 15.08846118 69286,6917.862,95.437,540.21,539.243,0.0
50157.0,STARLINK-3313,PAYLOAD,2023-03-19 08:55:39,15.08861259,0.0001155,53.2143,95.7892,85.5897,274.5227,0.00076248,0.00011875,0.0,0 STARLINK-3313,1 50157U 21125B   23078.37198715  .00011875  00000-0  76248-3 0  9992,2 50157  53.2143  95.7892 0001155  85.5897 274.5227 15.08861259 72500,6917.815,95.436,540.479,538.881,0.0
50157.0,STARLINK-3313,PAYLOAD,2023-03-19 18:27:58,15.08836942,0.0001192,53.2144,94.0047,99.8577,260.255,-2.857e-05,-7.42e-06,0.0,0 STARLINK-3313,1 50157U 21125B   23078.76943035 -.00000742  00000-0 -28570-4 0  9997,2 50157  53.2144  94.0047 0001192  99.8577 260.2550 15.08836942 69439,6917.89,95.438,540.579,538.93,0.0
50157.0,STARLINK-3313,PAYLOAD,2023-03-20 10:21:50,15.08843704,0.0001204,53.2146,91.0306,95.9862,264.1267,0.00034535,5.213e-05,0.0,0 STARLINK-3313,1 50157U 21125B   23079.43183163  .00005213  00000-0  34535-3 0  9993,2 50157  53.2146  91.0306 0001204  95.9862 264.1267 15.08843704 72665,6917.869,95.437,540.567,538.901,0.0
50157.0,STARLINK-3313,PAYLOAD,2023-03-20 18:18:46,15.08841778,0.0001235,53.2143,89.5438,94.7342,265.3791,0.00033007,4.969e-05,0.0,0 STARLINK-3313,1 50157U 21125B   23079.76303346  .00004969  00000-0  33007-3 0  9996,2 50157  53.2143  89.5438 0001235  94.7342 265.3791 15.08841778 72714,6917.875,95.437,540.594,538.886,0.0
50157.0,STARLINK-3313,PAYLOAD,2023-03-21 05:26:28,15.08842412,0.0001441,53.215,87.4616,100.2526,259.8628,0.00034622,5.227e-05,0.0,0 STARLINK-3313,1 50157U 21125B   23080.22671447  .00005227  00000-0  34622-3 0  9991,2 50157  53.2150  87.4616 0001441 100.2526 259.8628 15.08842412 69655,6917.873,95.437,540.735,538.741,0.0
50157.0,STARLINK-3313,PAYLOAD,2023-03-21 07:01:51,15.08844584,0.0001409,53.2152,87.1642,98.2852,261.83,0.00025049,3.701e-05,0.0,0 STARLINK-3313,1 50157U 21125B   23080.29295321  .00003701  00000-0  25049-3 0  9999,2 50157  53.2152  87.1642 0001409  98.2852 261.8300 15.08844584 72796,6917.866,95.437,540.706,538.757,0.0
50157.0,STARLINK-3313,PAYLOAD,2023-03-21 11:48:00,15.08852361,0.0001384,53.215,86.2715,99.6827,260.4322,0.00033081,4.983e-05,0.0,0 STARLINK-3313,1 50157U 21125B   23080.49166954  .00004983  00000-0  33081-3 0  9998,2 50157  53.2150  86.2715 0001384  99.6827 260.4322 15.08852361 72829,6917.843,95.437,540.665,538.75,0.0
50157.0,STARLINK-3313,PAYLOAD,2023-03-22 10:03:24,15.08848968,0.0001274,53.2154,82.1096,95.7035,264.4103,0.00028223,4.208e-05,0.0,0 STARLINK-3313,1 50157U 21125B   23081.41903177  .00004208  00000-0  28223-3 0  9999,2 50157  53.2154  82.1096 0001274  95.7035 264.4103 15.08848968 69832,6917.853,95.437,540.599,538.837,0.0
50157.0,STARLINK-3313,PAYLOAD,2023-03-22 16:24:57,15.08840001,0.0001517,53.2158,80.9193,82.0344,278.082,9.2246e-05,1.18e-05,0.0,0 STARLINK-3313,1 50157U 21125B   23081.68399545  .00001180  00000-0  92246-4 0  9999,2 50157  53.2158  80.9193 0001517  82.0344 278.0820 15.08840001 69873,6917.88,95.438,540.795,538.696,0.0
50157.0,STARLINK-3313,PAYLOAD,2023-03-23 06:43:25,15.08840508,0.0001398,53.2163,78.245,91.6713,268.444,0.00011224,1.499e-05,0.0,0 STARLINK-3313,1 50157U 21125B   23082.28015608  .00001499  00000-0  11224-3 0  9990,2 50157  53.2163  78.2450 0001398  91.6713 268.4440 15.08840508 73090,6917.879,95.438,540.711,538.777,0.0
50157.0,STARLINK-3313,PAYLOAD,2023-03-23 16:15:44,15.08838878,0.0001231,53.2155,76.4606,88.8884,271.2249,0.00014973,2.096e-05,0.0,0 STARLINK-3313,1 50157U 21125B   23082.67759787  .00002096  00000-0  14973-3 0  9994,2 50157  53.2155  76.4606 0001231  88.8884 271.2249 15.08838878 73150,6917.884,95.438,540.6,538.897,0.0
50157.0,STARLINK-3313,PAYLOAD,2023-03-24 04:58:49,15.08868928,0.0001072,53.2152,74.081,89.0562,271.0553,0.00095371,0.00014935,0.0,0 STARLINK-3313,1 50157U 21125B   23083.20751320  .00014935  00000-0  95371-3 0  9995,2 50157  53.2152  74.0810 0001072  89.0562 271.0553 15.08868928 70104,6917.792,95.436,540.399,538.915,0.0
